[{"line1":"1 08688U 76014A   22221.17811769  .00001707  00000-0  51923-4 0  9996","line2":"2 08688  65.8422 247.8773 0026882 246.5464 113.2854 15.37464344573903"},{"line1":"1 08697U 76017A   22220.95800628 -.00000062  00000-0  00000-0 0  9996","line2":"2 08697   9.1216 306.6185 0016224 167.6830 204.1933  0.99208381168137"},{"line1":"1 08709U 76019A   22221.40030716 -.00000027  00000-0  27233-4 0  9998","line2":"2 08709  69.6728 189.6627 0010575 186.4915 339.3714 13.71479103324044"},{"line1":"1 08710U 76019B   22221.38723652 -.00000012  00000-0  45059-4 0  9995","line2":"2 08710  69.6742 257.1233 0014067 209.6900 162.2028 13.69880612322269"},{"line1":"1  8744U 76022A   22221.81830494  .00004556  00000-0  22556-3 0  9999","line2":"2  8744  82.9249  67.7724 0557523  33.5180  56.5185 14.37101068345732"},{"line1":"1 08746U 76023A   22221.55471562 -.00000114  00000-0  00000-0 0  9994","line2":"2 08746  19.6679  55.1542 0031484 108.2966 248.1464  1.00278001115565"},{"line1":"1 08747U 76023B   22221.57895931 -.00000100  00000-0  00000-0 0  9992","line2":"2 08747  19.6285  55.1574 0022389 132.6345 230.4179  1.00273252115571"},{"line1":"1 08748U 76023C   22221.06806679 -.00000834  00000-0  00000-0 0  9992","line2":"2 08748  22.7170 333.3171 0128765 129.5236   5.5386  0.19675061  2695"},{"line1":"1 08751U 76023F   22221.42560028 -.00000202  00000-0  00000-0 0  9990","line2":"2 08751  18.8575  60.6692 0125160  63.0792 279.9399  0.98326070169366"},{"line1":"1 08752U 76023G   22223.25753707 -.00000490  00000-0  00000-0 0  9991","line2":"2 08752  22.3747 353.6312 4379941  36.2010 359.7996  0.41535703 75740"},{"line1":"1 08753U 76023H   22224.02552459 -.00000942  00000-0  00000-0 0  9991","line2":"2 08753  23.0345 325.3346 0343657  74.0708   1.1011  0.18718202  2782"},{"line1":"1 08756U 74071C   22221.30716162  .00002281  00000-0  31761-3 0  9994","line2":"2 08756  74.0519 171.3774 0005399 235.4832 124.5834 14.78402046680486"},{"line1":"1 08757U 75094D   22221.27578186  .00005740  00000-0  54532-3 0  9993","line2":"2 08757  74.0254 174.1129 0002415 245.2182 114.8750 14.93723828690505"},{"line1":"1 08764U 70102E   22221.26534110  .00000129  00000-0  13240-3 0  9991","line2":"2 08764  74.0376 154.1123 0022224 349.3660 162.3470 13.85742566606983"},{"line1":"1 08774U 76029A   22221.21597826 -.00000076  00000-0  00000-0 0  9993","line2":"2 08774  11.7643 320.0241 0062818 196.3069 163.5886  0.98621761105644"},{"line1":"1 08784U 74089DL  22221.13294078  .00009093  00000-0  25825-1 0  9992","line2":"2 08784 101.3231 162.1803 0150321 162.7245 212.3931 13.07398611345507"},{"line1":"1 08785U 74089DM  22221.34392211  .00000775  00000-0  76937-2 0  9993","line2":"2 08785 101.0043 163.0462 0271230 128.5674  22.2758 12.12332423910491"},{"line1":"1 08786U 74089DN  22221.25006215 -.00000035  00000-0  69471-4 0  9997","line2":"2 08786 101.9343 317.3555 0055274 126.3967 259.1357 12.44149488165108"},{"line1":"1 08788U 74089DQ  22221.46244278 -.00000060  00000-0 -10804-3 0  9999","line2":"2 08788 102.1136 310.2245 0071948 169.7553 251.9854 12.39650330160697"},{"line1":"1 08789U 74089DR  22221.30138498  .00000003  00000-0  35410-3 0  9994","line2":"2 08789 101.9538 168.8995 0105342 337.6354 189.5748 12.38917428158082"},{"line1":"1 08790U 74089DS  22221.44959274 -.00000049  00000-0 -19835-4 0  9990","line2":"2 08790 101.7549 198.4547 0040432 300.1005 213.1832 12.58842898191469"},{"line1":"1 08791U 66087F   22220.38997316  .00000226  00000-0  14350-2 0  9991","line2":"2 08791 101.4881 189.1612 0140697 108.3493  44.2847 12.63027590566486"},{"line1":"1 08799U 76032A   22221.29715590  .00000221  00000-0  11443-3 0  9999","line2":"2 08799  81.2584 160.5947 0033370 250.3229 109.4342 14.11540254385336"},{"line1":"1  8800U 76032B   22221.65080604  .00000107  00000-0  51924-4 0  9995","line2":"2  8800  81.2511 188.7654 0092761 263.7858  95.2740 14.10206431383068"},{"line1":"1  8808U 76035A   22221.69096872 -.00000164  00000-0  00000+0 0  9992","line2":"2  8808   8.1912 307.4378 0021480 284.0960  68.5043  0.99836409733190"},{"line1":"1 08820U 76039A   22221.23514324  .00000036  00000-0  00000-0 0  9995","line2":"2 08820 109.8525  57.0724 0045107 243.5091 281.3382  6.38664830823224"},{"line1":"1 08822U 76039C   22220.06661547  .00000037  00000-0  00000-0 0  9998","line2":"2 08822 109.8532  61.0518 0044756 238.8101 282.9959  6.38870017 79134"},{"line1":"1 08826U 71120C   22221.41760152  .00002919  00000-0  62061-3 0  9999","line2":"2 08826  81.2366  13.4293 0011404 168.6073 191.5385 14.58828946643432"},{"line1":"1 08827U 71120D   22221.54680969  .00000090  00000-0  39150-4 0  9993","line2":"2 08827  81.2650 266.8877 0011940 303.7059  56.2976 14.15934855608852"},{"line1":"1 08828U 70106C   22221.36207955  .00000195  00000-0  18118-2 0  9992","line2":"2 08828 102.0702 182.7450 0023837 202.6885 312.3586 12.39180291336917"},{"line1":"1  8829U 74071D   22221.86632708  .00000979  00000-0  22006-3 0  9993","line2":"2  8829  74.0606  55.3795 0015193 211.9709 148.0535 14.57818642607706"},{"line1":"1 08832U 76023J   22221.27764259 -.00000142  00000-0  00000-0 0  9998","line2":"2 08832  18.8490  60.6518 0144065  56.1659 221.0700  0.98259504103762"},{"line1":"1 08835U 76038C   22221.29309253  .00000035  00000-0  51212-4 0  9993","line2":"2 08835  63.3422 177.1182 0534432 161.7908 200.3119 13.81264242164208"},{"line1":"1 08836U 76038D   22221.28533102  .00000007  00000-0  42747-4 0  9997","line2":"2 08836  63.3422 178.4609 0533294 161.9763 200.1025 13.81151943156683"},{"line1":"1 08838U 76042A   22221.32275720 -.00000171  00000-0  00000-0 0  9993","line2":"2 08838  10.9345 316.2565 0000804 187.9529 209.2866  0.99818226106524"},{"line1":"1 08840U 76042B   22221.42412698 -.00000037  00000-0 -42060-3 0  9991","line2":"2 08840  21.7997 320.1664 7163423 104.5351 352.0241  2.22479413260025"},{"line1":"1 08845U 76043A   22221.36925683  .00000012  00000-0 -43126-6 0  9992","line2":"2 08845  81.2595 246.9578 0039511 331.0063  28.8913 14.11529316526291"},{"line1":"1 08846U 76043B   22221.43937458  .00000029  00000-0  94909-5 0  9995","line2":"2 08846  81.2196 283.0654 0038986 110.4092 250.1272 14.08618831375334"},{"line1":"1 08860U 76047A   22221.39525323  .00000067  00000-0  13376-3 0  9993","line2":"2 08860  99.8828  15.4484 0041523 334.9404  57.6766 13.67732121303901"},{"line1":"1  8861U 76047B   22221.74190013  .00000005  00000-0  62517-4 0  9991","line2":"2  8861  99.9257  32.7849 0042439 123.4369 248.2871 13.66357623302907"},{"line1":"1 08867U 76047C   22220.99156255  .00000085  00000-0  17641-3 0  9998","line2":"2 08867  99.3511 109.5479 0073262 279.2220 208.6657 13.56759741284868"},{"line1":"1 08868U 76047D   22221.36528564  .00000081  00000-0  12411-3 0  9993","line2":"2 08868 100.0930 256.5328 0049729 316.5782 161.8416 13.80643400323205"},{"line1":"1 08873U 76051A   22221.42654418  .00000042  00000-0  28604-4 0  9998","line2":"2 08873  82.9644  92.9547 0022577 171.0992   2.2749 13.73351090313901"},{"line1":"1  8874U 76051B   22221.59535169  .00000154  00000-0  14508-3 0  9999","line2":"2  8874  82.9565  55.0074 0025512  90.6811 269.7268 13.75023964316689"},{"line1":"1  8882U 76053A   22221.70674385 -.00000121  00000-0  00000+0 0  9990","line2":"2  8882  10.9670 311.8741 0122948 299.7277  67.3016  0.95899295107709"},{"line1":"1 08884U 76038J   22221.42971121  .00000128  00000-0  75223-4 0  9992","line2":"2 08884  63.3406 116.1546 0526144 163.2317 198.6895 13.86046213166824"},{"line1":"1 08889U 76054A   22221.43543625 -.00000010  00000-0  36246-4 0  9993","line2":"2 08889  74.0004 116.7904 0058225 117.1447  54.5874 12.55707787115464"},{"line1":"1  8890U 76054B   22221.45769411 -.00000019  00000-0 -24917-4 0  9992","line2":"2  8890  74.0004 113.8477 0039865 341.7929 191.3523 12.38524993 86777"},{"line1":"1 08891U 76054C   22221.42680972  .00000006  00000-0  13759-3 0  9999","line2":"2 08891  73.9978 219.4195 0049471 244.6146 186.8018 12.53275374529179"},{"line1":"1 08892U 76054D   22221.20202133 -.00000020  00000-0 -23776-4 0  9994","line2":"2 08892  74.0031 317.6270 0036305 357.2001  22.7004 12.50954175107423"},{"line1":"1 08893U 76054E   22221.28140260  .00000003  00000-0  12268-3 0  9997","line2":"2 08893  73.9997  53.9809 0025446 120.1329 351.0027 12.48648106103548"},{"line1":"1 08894U 76054F   22221.45446694 -.00000036  00000-0 -14135-3 0  9990","line2":"2 08894  74.0012 154.9317 0016363 258.2987 266.2386 12.46228899 99490"},{"line1":"1  8895U 76054G   22221.80353324  .00000013  00000-0  20326-3 0  9999","line2":"2  8895  73.9979 258.6469 0020124  57.5235  61.3422 12.43717555 95554"},{"line1":"1 08896U 76054H   22221.35823594 -.00000016  00000-0 -87990-6 0  9999","line2":"2 08896  74.0032 359.6479 0024448 209.3081 177.3927 12.41292582 91201"},{"line1":"1 08897U 76054J   22221.35648351 -.00000027  00000-0 -11742-3 0  9997","line2":"2 08897  73.9964  99.0707 0125126  83.7894 326.2894 12.21053085 57227"},{"line1":"1 08908U 70025NJ  22220.19629166  .00020265  00000-0  11708-1 0  9990","line2":"2 08908 101.7009 111.9969 0130902  72.5251 289.0165 14.04780045547570"},{"line1":"1 08916U 76059A   22220.75188284  .00000079  00000-0  00000-0 0  9998","line2":"2 08916   6.9888 289.1837 0009266 189.9510 178.4782  0.99468026 11495"},{"line1":"1 08918U 76059C   22221.44778521 -.00000002  00000-0  00000-0 0  9993","line2":"2 08918   6.3403 285.7454 0012036 209.8166 150.2532  1.00531849 11295"},{"line1":"1 08923U 76061A   22221.43200663  .00000069  00000-0  34535-4 0  9994","line2":"2 08923  74.0537  27.1150 0018958 254.4206 105.4853 14.33250510408462"},{"line1":"1 08924U 76061B   22221.39218289  .00000103  00000-0  43366-4 0  9994","line2":"2 08924  74.0562 252.2182 0013308  42.3693 329.3097 14.37304244413477"},{"line1":"1 08951U 75004AH  22221.22881493  .00000514  00000-0  10744-3 0  9994","line2":"2 08951  98.0061 151.5185 0030914 275.3937  84.3739 14.63558730444927"}]